IRIDIUM 119             
1 42959U 17061E   23317.57720507  .00000019  00000+0 -42775-6 0  9994
2 42959  86.3984  60.8366 0001840 102.8801 257.2601 14.34215939319132
IRIDIUM 107             
1 42960U 17061F   23317.52646852  .00000519  00000+0  17813-3 0  9997
2 42960  86.3985  60.8734 0002104 103.1895 256.9536 14.34214590319130
IRIDIUM 132             
1 42961U 17061G   23317.53281299  .00000476  00000+0  16280-3 0  9998
2 42961  86.3984  60.8568 0002040 102.2980 257.8444 14.34215209319135
IRIDIUM 136             
1 42962U 17061H   23317.56452495  .00000460  00000+0  15702-3 0  9991
2 42962  86.3985  60.8458 0001750  95.0987 265.0409 14.34216331319159
IRIDIUM 139             
1 42963U 17061J   23317.36156334  .00000452  00000+0  15434-3 0  9996
2 42963  86.3983  60.9777 0002003 100.8601 259.2820 14.34215977319138
IRIDIUM 125             
1 42964U 17061K   23317.34887951  .00000298  00000+0  99415-4 0  9991
2 42964  86.3986  61.0264 0001813 106.2824 253.8571 14.34210484319142
IRIDIUM 135             
1 43070U 17083A   23317.53228395  .00000386  00000+0  13090-3 0  9998
2 43070  86.3990 357.6646 0002497  92.1765 267.9717 14.34224512308468
IRIDIUM 138             
1 43071U 17083B   23317.83675522  .00000386  00000+0  13080-3 0  9999
2 43071  86.3979 357.2820 0001979  96.9478 263.1943 14.34215304308494
